CCSDS_OMM_VERS = 2.0
CREATION_DATE  = 
ORIGINATOR     = 

OBJECT_NAME    = STARLINK-37132
OBJECT_ID      = 2026-054B
CENTER_NAME    = EARTH
REF_FRAME      = TEME
TIME_SYSTEM    = UTC
MEAN_ELEMENT_THEORY = SGP/SGP4

EPOCH          = 2026-04-04T17:42:27.833760
MEAN_MOTION    = 15.80858397
ECCENTRICITY   = .00010118
INCLINATION    = 53.1585
RA_OF_ASC_NODE = 182.1241
ARG_OF_PERICENTER = 63.9307
MEAN_ANOMALY   = 296.1819

EPHEMERIS_TYPE = 0
CLASSIFICATION_TYPE = U
NORAD_CAT_ID   = 68233
ELEMENT_SET_NO = 999
REV_AT_EPOCH   = 289
BSTAR          = .7459897E-3
MEAN_MOTION_DOT = .149E-2
MEAN_MOTION_DDOT = 0

CCSDS_OMM_VERS = 2.0
CREATION_DATE  = 
ORIGINATOR     = 

OBJECT_NAME    = STARLINK-37101
OBJECT_ID      = 2026-054C
CENTER_NAME    = EARTH
REF_FRAME      = TEME
TIME_SYSTEM    = UTC
MEAN_ELEMENT_THEORY = SGP/SGP4

EPOCH          = 2026-04-04T22:37:27.727392
MEAN_MOTION    = 15.75255912
ECCENTRICITY   = .00019941
INCLINATION    = 53.1585
RA_OF_ASC_NODE = 181.2748
ARG_OF_PERICENTER = 63.1106
MEAN_ANOMALY   = 297.0118

EPHEMERIS_TYPE = 0
CLASSIFICATION_TYPE = U
NORAD_CAT_ID   = 68234
ELEMENT_SET_NO = 999
REV_AT_EPOCH   = 292
BSTAR          = .21633466E-2
MEAN_MOTION_DOT = .34512E-2
MEAN_MOTION_DDOT = 0

CCSDS_OMM_VERS = 2.0
CREATION_DATE  = 
ORIGINATOR     = 

OBJECT_NAME    = STARLINK-36963
OBJECT_ID      = 2026-054D
CENTER_NAME    = EARTH
REF_FRAME      = TEME
TIME_SYSTEM    = UTC
MEAN_ELEMENT_THEORY = SGP/SGP4

EPOCH          = 2026-04-04T16:38:31.404192
MEAN_MOTION    = 15.75212760
ECCENTRICITY   = .00013861
INCLINATION    = 53.1596
RA_OF_ASC_NODE = 182.5659
ARG_OF_PERICENTER = 61.3232
MEAN_ANOMALY   = 298.7928

EPHEMERIS_TYPE = 0
CLASSIFICATION_TYPE = U
NORAD_CAT_ID   = 68235
ELEMENT_SET_NO = 999
REV_AT_EPOCH   = 288
BSTAR          = .41507247E-3
MEAN_MOTION_DOT = .63391E-3
MEAN_MOTION_DDOT = 0

CCSDS_OMM_VERS = 2.0
CREATION_DATE  = 
ORIGINATOR     = 

OBJECT_NAME    = STARLINK-37127
OBJECT_ID      = 2026-054E
CENTER_NAME    = EARTH
REF_FRAME      = TEME
TIME_SYSTEM    = UTC
MEAN_ELEMENT_THEORY = SGP/SGP4

EPOCH          = 2026-04-04T16:51:35.938656
MEAN_MOTION    = 15.75204607
ECCENTRICITY   = .00016462
INCLINATION    = 53.1594
RA_OF_ASC_NODE = 182.6261
ARG_OF_PERICENTER = 73.8619
MEAN_ANOMALY   = 286.2582

EPHEMERIS_TYPE = 0
CLASSIFICATION_TYPE = U
NORAD_CAT_ID   = 68236
ELEMENT_SET_NO = 999
REV_AT_EPOCH   = 288
BSTAR          = .34690508E-3
MEAN_MOTION_DOT = .5279E-3
MEAN_MOTION_DDOT = 0

CCSDS_OMM_VERS = 2.0
CREATION_DATE  = 
ORIGINATOR     = 

OBJECT_NAME    = STARLINK-37095
OBJECT_ID      = 2026-054F
CENTER_NAME    = EARTH
REF_FRAME      = TEME
TIME_SYSTEM    = UTC
MEAN_ELEMENT_THEORY = SGP/SGP4

EPOCH          = 2026-04-04T16:45:03.428640
MEAN_MOTION    = 15.75210370
ECCENTRICITY   = .00010622
INCLINATION    = 53.1596
RA_OF_ASC_NODE = 182.5957
ARG_OF_PERICENTER = 127.4166
MEAN_ANOMALY   = 232.6951

EPHEMERIS_TYPE = 0
CLASSIFICATION_TYPE = U
NORAD_CAT_ID   = 68237
ELEMENT_SET_NO = 999
REV_AT_EPOCH   = 288
BSTAR          = .3433347E-3
MEAN_MOTION_DOT = .52249E-3
MEAN_MOTION_DDOT = 0

CCSDS_OMM_VERS = 2.0
CREATION_DATE  = 
ORIGINATOR     = 

OBJECT_NAME    = STARLINK-37097
OBJECT_ID      = 2026-054G
CENTER_NAME    = EARTH
REF_FRAME      = TEME
TIME_SYSTEM    = UTC
MEAN_ELEMENT_THEORY = SGP/SGP4

EPOCH          = 2026-04-04T17:37:03.994464
MEAN_MOTION    = 15.80837715
ECCENTRICITY   = .00013807
INCLINATION    = 53.1580
RA_OF_ASC_NODE = 182.0988
ARG_OF_PERICENTER = 42.3305
MEAN_ANOMALY   = 317.7824

EPHEMERIS_TYPE = 0
CLASSIFICATION_TYPE = U
NORAD_CAT_ID   = 68238
ELEMENT_SET_NO = 999
REV_AT_EPOCH   = 289
BSTAR          = .64404828E-3
MEAN_MOTION_DOT = .128108E-2
MEAN_MOTION_DDOT = 0

CCSDS_OMM_VERS = 2.0
CREATION_DATE  = 
ORIGINATOR     = 

OBJECT_NAME    = STARLINK-37096
OBJECT_ID      = 2026-054H
CENTER_NAME    = EARTH
REF_FRAME      = TEME
TIME_SYSTEM    = UTC
MEAN_ELEMENT_THEORY = SGP/SGP4

EPOCH          = 2026-04-03T17:18:19.952928
MEAN_MOTION    = 15.80922737
ECCENTRICITY   = .00010266
INCLINATION    = 53.1586
RA_OF_ASC_NODE = 187.1577
ARG_OF_PERICENTER = 117.1065
MEAN_ANOMALY   = 243.0063

EPHEMERIS_TYPE = 0
CLASSIFICATION_TYPE = U
NORAD_CAT_ID   = 68239
ELEMENT_SET_NO = 999
REV_AT_EPOCH   = 273
BSTAR          = .15205244E-2
MEAN_MOTION_DOT = .311187E-2
MEAN_MOTION_DDOT = 0

CCSDS_OMM_VERS = 2.0
CREATION_DATE  = 
ORIGINATOR     = 

OBJECT_NAME    = STARLINK-37092
OBJECT_ID      = 2026-054J
CENTER_NAME    = EARTH
REF_FRAME      = TEME
TIME_SYSTEM    = UTC
MEAN_ELEMENT_THEORY = SGP/SGP4

EPOCH          = 2026-04-04T22:00:01.999584
MEAN_MOTION    = 15.75256310
ECCENTRICITY   = .00009766
INCLINATION    = 53.1576
RA_OF_ASC_NODE = 181.2946
ARG_OF_PERICENTER = 113.0554
MEAN_ANOMALY   = 152.9647

EPHEMERIS_TYPE = 0
CLASSIFICATION_TYPE = U
NORAD_CAT_ID   = 68240
ELEMENT_SET_NO = 999
REV_AT_EPOCH   = 412
BSTAR          = -.31527109E-4
MEAN_MOTION_DOT = -.5472E-4
MEAN_MOTION_DDOT = 0

CCSDS_OMM_VERS = 2.0
CREATION_DATE  = 
ORIGINATOR     = 

OBJECT_NAME    = STARLINK-37094
OBJECT_ID      = 2026-054K
CENTER_NAME    = EARTH
REF_FRAME      = TEME
TIME_SYSTEM    = UTC
MEAN_ELEMENT_THEORY = SGP/SGP4

EPOCH          = 2026-04-04T17:33:49.287744
MEAN_MOTION    = 15.80853495
ECCENTRICITY   = .00005441
INCLINATION    = 53.1583
RA_OF_ASC_NODE = 182.0841
ARG_OF_PERICENTER = 86.5652
MEAN_ANOMALY   = 273.5433

EPHEMERIS_TYPE = 0
CLASSIFICATION_TYPE = U
NORAD_CAT_ID   = 68241
ELEMENT_SET_NO = 999
REV_AT_EPOCH   = 289
BSTAR          = .69186252E-3
MEAN_MOTION_DOT = .137929E-2
MEAN_MOTION_DDOT = 0

CCSDS_OMM_VERS = 2.0
CREATION_DATE  = 
ORIGINATOR     = 

OBJECT_NAME    = STARLINK-36356
OBJECT_ID      = 2026-054L
CENTER_NAME    = EARTH
REF_FRAME      = TEME
TIME_SYSTEM    = UTC
MEAN_ELEMENT_THEORY = SGP/SGP4

EPOCH          = 2026-04-04T22:00:01.999584
MEAN_MOTION    = 15.75166089
ECCENTRICITY   = .00011739
INCLINATION    = 53.1581
RA_OF_ASC_NODE = 181.3467
ARG_OF_PERICENTER = 101.1900
MEAN_ANOMALY   = 139.0815

EPHEMERIS_TYPE = 0
CLASSIFICATION_TYPE = U
NORAD_CAT_ID   = 68242
ELEMENT_SET_NO = 999
REV_AT_EPOCH   = 416
BSTAR          = .14618314E-2
MEAN_MOTION_DOT = .22888E-2
MEAN_MOTION_DDOT = 0

CCSDS_OMM_VERS = 2.0
CREATION_DATE  = 
ORIGINATOR     = 

OBJECT_NAME    = STARLINK-36345
OBJECT_ID      = 2026-054M
CENTER_NAME    = EARTH
REF_FRAME      = TEME
TIME_SYSTEM    = UTC
MEAN_ELEMENT_THEORY = SGP/SGP4

EPOCH          = 2026-04-04T16:38:03.218784
MEAN_MOTION    = 15.75201280
ECCENTRICITY   = .00012407
INCLINATION    = 53.1599
RA_OF_ASC_NODE = 182.5632
ARG_OF_PERICENTER = 119.8204
MEAN_ANOMALY   = 240.2940

EPHEMERIS_TYPE = 0
CLASSIFICATION_TYPE = U
NORAD_CAT_ID   = 68243
ELEMENT_SET_NO = 999
REV_AT_EPOCH   = 288
BSTAR          = .35656524E-3
MEAN_MOTION_DOT = .54279E-3
MEAN_MOTION_DDOT = 0

CCSDS_OMM_VERS = 2.0
CREATION_DATE  = 
ORIGINATOR     = 

OBJECT_NAME    = STARLINK-36310
OBJECT_ID      = 2026-054N
CENTER_NAME    = EARTH
REF_FRAME      = TEME
TIME_SYSTEM    = UTC
MEAN_ELEMENT_THEORY = SGP/SGP4

EPOCH          = 2026-04-04T17:29:30.301152
MEAN_MOTION    = 15.80856207
ECCENTRICITY   = .00014748
INCLINATION    = 53.1586
RA_OF_ASC_NODE = 182.0637
ARG_OF_PERICENTER = 74.9443
MEAN_ANOMALY   = 285.1743

EPHEMERIS_TYPE = 0
CLASSIFICATION_TYPE = U
NORAD_CAT_ID   = 68244
ELEMENT_SET_NO = 999
REV_AT_EPOCH   = 289
BSTAR          = .79424689E-3
MEAN_MOTION_DOT = .158852E-2
MEAN_MOTION_DDOT = 0

