STARLINK-37132          
1 68233U 26054B   26094.73782215  .00149000  00000+0  74599-3 0  9995
2 68233  53.1585 182.1241 0001011  63.9307 296.1819 15.80858397  2890
STARLINK-37101          
1 68234U 26054C   26094.94268203  .00345120  00000+0  21633-2 0  9996
2 68234  53.1585 181.2748 0001994  63.1106 297.0118 15.75255912  2926
STARLINK-36963          
1 68235U 26054D   26094.69341903  .00063391  00000+0  41507-3 0  9998
2 68235  53.1596 182.5659 0001386  61.3232 298.7928 15.75212760  2885
STARLINK-37127          
1 68236U 26054E   26094.70249929  .00052790  00000+0  34691-3 0  9993
2 68236  53.1594 182.6261 0001646  73.8619 286.2582 15.75204607  2889
STARLINK-37095          
1 68237U 26054F   26094.69795635  .00052249  00000+0  34333-3 0  9994
2 68237  53.1596 182.5957 0001062 127.4166 232.6951 15.75210370  2887
STARLINK-37097          
1 68238U 26054G   26094.73407401  .00128108  00000+0  64405-3 0  9992
2 68238  53.1580 182.0988 0001380  42.3305 317.7824 15.80837715  2892
STARLINK-37096          
1 68239U 26054H   26093.72106427  .00311187  00000+0  15205-2 0  9999
2 68239  53.1586 187.1577 0001026 117.1065 243.0063 15.80922737  2738
STARLINK-37092          
1 68240U 26054J   26094.91668981 -.00005472  00000+0 -31527-4 0  9997
2 68240  53.1576 181.2946 0000976 113.0554 152.9647 15.75256310  4127
STARLINK-37094          
1 68241U 26054K   26094.73182046  .00137929  00000+0  69186-3 0  9993
2 68241  53.1583 182.0841 0000544  86.5652 273.5433 15.80853495  2891
STARLINK-36356          
1 68242U 26054L   26094.91668981  .00228880  00000+0  14618-2 0  9997
2 68242  53.1581 181.3467 0001173 101.1900 139.0815 15.75166089  4167
STARLINK-36345          
1 68243U 26054M   26094.69309281  .00054279  00000+0  35657-3 0  9994
2 68243  53.1599 182.5632 0001240 119.8204 240.2940 15.75201280  2886
STARLINK-36310          
1 68244U 26054N   26094.72882293  .00158852  00000+0  79425-3 0  9991
2 68244  53.1586 182.0637 0001474  74.9443 285.1743 15.80856207  2899
